start=new Date('2022-11-22T00:00:00.000Z').valueOf();
sats=[{"MEAN_MOTION_DDOT":"0.0000000000000","ARG_OF_PERICENTER":"53.8893","CLASSIFICATION_TYPE":"U","INCLINATION":"53.2174","SEMIMAJOR_AXIS":"6917.896","MEAN_MOTION_DOT":"0.00003207","LAUNCH_DATE":"2022-07-07","OBJECT_NAME":"STARLINK-4265","RA_OF_ASC_NODE":"89.2443","ELEMENT_SET_NO":"999","NORAD_CAT_ID":"53011","BSTAR":"0.00021951000000","RCS_SIZE":"LARGE","ECCENTRICITY":"0.00016160","PERIOD":"95.438","PERIAPSIS":"538.643","OBJECT_ID":"2022-076AB","TLE_LINE1":"1 53011U 22076AB  22325.65555412  .00003207  00000-0  21951-3 0  9997","APOAPSIS":"540.879","GP_ID":"218435414","REF_FRAME":"TEME","TIME_SYSTEM":"UTC","CENTER_NAME":"EARTH","COUNTRY_CODE":"US","EPOCH":"2022-11-21T15:43:59.875968","MEAN_ANOMALY":"306.2249","FILE":"3666658","DECAY_DATE":null,"SITE":"AFETR","REV_AT_EPOCH":"2121","TLE_LINE2":"2 53011  53.2174  89.2443 0001616  53.8893 306.2249 15.08834837 21213","OBJECT_TYPE":"PAYLOAD","MEAN_ELEMENT_THEORY":"SGP4","EPHEMERIS_TYPE":"0","MEAN_MOTION":"15.08834837"},{"TLE_LINE2":"2 53012  53.2200  99.1752 0002030  49.7161 310.4009 15.08833956 21087","DECAY_DATE":null,"SITE":"AFETR","REV_AT_EPOCH":"2108","OBJECT_TYPE":"PAYLOAD","MEAN_ELEMENT_THEORY":"SGP4","MEAN_MOTION":"15.08833956","EPHEMERIS_TYPE":"0","MEAN_MOTION_DOT":"0.00001140","SEMIMAJOR_AXIS":"6917.899","LAUNCH_DATE":"2022-07-07","OBJECT_NAME":"STARLINK-4271","MEAN_MOTION_DDOT":"0.0000000000000","ARG_OF_PERICENTER":"49.7161","CLASSIFICATION_TYPE":"U","INCLINATION":"53.2200","ELEMENT_SET_NO":"999","NORAD_CAT_ID":"53012","BSTAR":"0.00008971800000","RA_OF_ASC_NODE":"99.1752","RCS_SIZE":"LARGE","PERIOD":"95.438","ECCENTRICITY":"0.00020300","PERIAPSIS":"538.360","OBJECT_ID":"2022-076AC","APOAPSIS":"541.168","TLE_LINE1":"1 53012U 22076AC  22325.66935937  .00001140  00000-0  89718-4 0  9993","MEAN_ANOMALY":"310.4009","COUNTRY_CODE":"US","EPOCH":"2022-11-21T16:03:52.649568","FILE":"3666658","GP_ID":"218436234","REF_FRAME":"TEME","CENTER_NAME":"EARTH","TIME_SYSTEM":"UTC"},{"TLE_LINE2":"2 53013  53.2199  88.6875 0001432  71.9009 288.2139 15.08838276 21230","DECAY_DATE":null,"SITE":"AFETR","REV_AT_EPOCH":"2123","OBJECT_TYPE":"PAYLOAD","MEAN_ELEMENT_THEORY":"SGP4","MEAN_MOTION":"15.08838276","EPHEMERIS_TYPE":"0","SEMIMAJOR_AXIS":"6917.886","MEAN_MOTION_DOT":"0.00000606","LAUNCH_DATE":"2022-07-07","OBJECT_NAME":"STARLINK-4177","MEAN_MOTION_DDOT":"0.0000000000000","ARG_OF_PERICENTER":"71.9009","CLASSIFICATION_TYPE":"U","INCLINATION":"53.2199","ELEMENT_SET_NO":"999","NORAD_CAT_ID":"53013","BSTAR":"0.00005614600000","RA_OF_ASC_NODE":"88.6875","ECCENTRICITY":"0.00014320","RCS_SIZE":"LARGE","PERIOD":"95.438","PERIAPSIS":"538.760","OBJECT_ID":"2022-076AD","TLE_LINE1":"1 53013U 22076AD  22325.78067569  .00000606  00000-0  56146-4 0  9999","APOAPSIS":"540.741","MEAN_ANOMALY":"288.2139","COUNTRY_CODE":"US","EPOCH":"2022-11-21T18:44:10.379616","FILE":"3666658","REF_FRAME":"TEME","GP_ID":"218436070","CENTER_NAME":"EARTH","TIME_SYSTEM":"UTC"},{"OBJECT_TYPE":"PAYLOAD","MEAN_ELEMENT_THEORY":"SGP4","DECAY_DATE":null,"SITE":"AFETR","REV_AT_EPOCH":"2121","TLE_LINE2":"2 53014  53.2175  89.2037 0001631  60.5541 299.5614 15.08834298 21219","EPHEMERIS_TYPE":"0","MEAN_MOTION":"15.08834298","RA_OF_ASC_NODE":"89.2037","ELEMENT_SET_NO":"999","NORAD_CAT_ID":"53014","BSTAR":"-0.00001100300000","ARG_OF_PERICENTER":"60.5541","MEAN_MOTION_DDOT":"0.0000000000000","CLASSIFICATION_TYPE":"U","INCLINATION":"53.2175","MEAN_MOTION_DOT":"-0.00000463","SEMIMAJOR_AXIS":"6917.898","LAUNCH_DATE":"2022-07-07","OBJECT_NAME":"STARLINK-4183","GP_ID":"218435250","REF_FRAME":"TEME","TIME_SYSTEM":"UTC","CENTER_NAME":"EARTH","COUNTRY_CODE":"US","EPOCH":"2022-11-21T15:54:36.198144","MEAN_ANOMALY":"299.5614","FILE":"3666658","RCS_SIZE":"LARGE","ECCENTRICITY":"0.00016310","PERIOD":"95.438","PERIAPSIS":"538.635","OBJECT_ID":"2022-076AE","TLE_LINE1":"1 53014U 22076AE  22325.66291896 -.00000463  00000-0 -11003-4 0  9995","APOAPSIS":"540.891"},{"INCLINATION":"53.2182","MEAN_MOTION_DDOT":"0.0000000000000","ARG_OF_PERICENTER":"42.6367","CLASSIFICATION_TYPE":"U","OBJECT_NAME":"STARLINK-4262","MEAN_MOTION_DOT":"-0.00000578","SEMIMAJOR_AXIS":"6917.909","LAUNCH_DATE":"2022-07-07","RA_OF_ASC_NODE":"89.3106","NORAD_CAT_ID":"53015","BSTAR":"-0.00001819100000","ELEMENT_SET_NO":"999","OBJECT_ID":"2022-076AF","TLE_LINE1":"1 53015U 22076AF  22325.64084129 -.00000578  00000-0 -18191-4 0  9995","APOAPSIS":"541.127","RCS_SIZE":"LARGE","ECCENTRICITY":"0.00019560","PERIOD":"95.438","PERIAPSIS":"538.421","CENTER_NAME":"EARTH","TIME_SYSTEM":"UTC","REF_FRAME":"TEME","GP_ID":"218435746","FILE":"3666658","MEAN_ANOMALY":"317.4776","COUNTRY_CODE":"US","EPOCH":"2022-11-21T15:22:48.687456","REV_AT_EPOCH":"2121","DECAY_DATE":null,"SITE":"AFETR","TLE_LINE2":"2 53015  53.2182  89.3106 0001956  42.6367 317.4776 15.08830717 21214","OBJECT_TYPE":"PAYLOAD","MEAN_ELEMENT_THEORY":"SGP4","EPHEMERIS_TYPE":"0","MEAN_MOTION":"15.08830717"},{"RCS_SIZE":"LARGE","PERIOD":"95.438","ECCENTRICITY":"0.00020790","PERIAPSIS":"538.334","OBJECT_ID":"2022-076AG","APOAPSIS":"541.211","TLE_LINE1":"1 53016U 22076AG  22325.65188906  .00000165  00000-0  28483-4 0  9990","GP_ID":"218435910","REF_FRAME":"TEME","TIME_SYSTEM":"UTC","CENTER_NAME":"EARTH","EPOCH":"2022-11-21T15:38:43.214784","COUNTRY_CODE":"US","MEAN_ANOMALY":"320.2593","FILE":"3666658","MEAN_MOTION_DDOT":"0.0000000000000","ARG_OF_PERICENTER":"39.8552","CLASSIFICATION_TYPE":"U","INCLINATION":"53.2197","SEMIMAJOR_AXIS":"6917.908","MEAN_MOTION_DOT":"0.00000165","LAUNCH_DATE":"2022-07-07","OBJECT_NAME":"STARLINK-4283","RA_OF_ASC_NODE":"89.2663","ELEMENT_SET_NO":"999","NORAD_CAT_ID":"53016","BSTAR":"0.00002848300000","EPHEMERIS_TYPE":"0","MEAN_MOTION":"15.08831059","DECAY_DATE":null,"SITE":"AFETR","REV_AT_EPOCH":"2121","TLE_LINE2":"2 53016  53.2197  89.2663 0002079  39.8552 320.2593 15.08831059 21218","OBJECT_TYPE":"PAYLOAD","MEAN_ELEMENT_THEORY":"SGP4"},{"EPHEMERIS_TYPE":"0","MEAN_MOTION":"15.08829825","MEAN_ELEMENT_THEORY":"SGP4","OBJECT_TYPE":"PAYLOAD","SITE":"AFETR","DECAY_DATE":null,"REV_AT_EPOCH":"2124","TLE_LINE2":"2 53017  53.2180  88.7278 0001827  50.9012 309.2142 15.08829825 21240","REF_FRAME":"TEME","GP_ID":"218436396","TIME_SYSTEM":"UTC","CENTER_NAME":"EARTH","MEAN_ANOMALY":"309.2142","COUNTRY_CODE":"US","EPOCH":"2022-11-21T18:28:16.754304","FILE":"3666658","PERIAPSIS":"538.513","ECCENTRICITY":"0.00018270","RCS_SIZE":"LARGE","PERIOD":"95.438","APOAPSIS":"541.040","TLE_LINE1":"1 53017U 22076AH  22325.76963836 -.00000426  00000-0 -86516-5 0  9990","OBJECT_ID":"2022-076AH","RA_OF_ASC_NODE":"88.7278","ELEMENT_SET_NO":"999","BSTAR":"-0.00000865160000","NORAD_CAT_ID":"53017","CLASSIFICATION_TYPE":"U","ARG_OF_PERICENTER":"50.9012","MEAN_MOTION_DDOT":"0.0000000000000","INCLINATION":"53.2180","LAUNCH_DATE":"2022-07-07","MEAN_MOTION_DOT":"-0.00000426","SEMIMAJOR_AXIS":"6917.911","OBJECT_NAME":"STARLINK-4281"},{"OBJECT_TYPE":"PAYLOAD","MEAN_ELEMENT_THEORY":"SGP4","REV_AT_EPOCH":"2121","DECAY_DATE":null,"SITE":"AFETR","TLE_LINE2":"2 53018  53.2189  89.2759 0002018  43.2825 316.8326 15.08834772 21212","EPHEMERIS_TYPE":"0","MEAN_MOTION":"15.08834772","RA_OF_ASC_NODE":"89.2759","NORAD_CAT_ID":"53018","BSTAR":"0.00013039000000","ELEMENT_SET_NO":"999","INCLINATION":"53.2189","MEAN_MOTION_DDOT":"0.0000000000000","ARG_OF_PERICENTER":"43.2825","CLASSIFICATION_TYPE":"U","OBJECT_NAME":"STARLINK-4279","SEMIMAJOR_AXIS":"6917.896","MEAN_MOTION_DOT":"0.00001787","LAUNCH_DATE":"2022-07-07","CENTER_NAME":"EARTH","TIME_SYSTEM":"UTC","REF_FRAME":"TEME","GP_ID":"218435582","FILE":"3666658","EPOCH":"2022-11-21T15:34:46.930656","COUNTRY_CODE":"US","MEAN_ANOMALY":"316.8326","OBJECT_ID":"2022-076AJ","TLE_LINE1":"1 53018U 22076AJ  22325.64915429  .00001787  00000-0  13039-3 0  9990","APOAPSIS":"541.157","RCS_SIZE":"LARGE","PERIOD":"95.438","ECCENTRICITY":"0.00020180","PERIAPSIS":"538.365"},{"OBJECT_TYPE":"PAYLOAD","MEAN_ELEMENT_THEORY":"SGP4","TLE_LINE2":"2 53019  53.2189  88.4538 0001897  48.2358 311.8796 15.08842452 21242","REV_AT_EPOCH":"2124","DECAY_DATE":null,"SITE":"AFETR","MEAN_MOTION":"15.08842452","EPHEMERIS_TYPE":"0","NORAD_CAT_ID":"53019","BSTAR":"0.00000980820000","ELEMENT_SET_NO":"999","RA_OF_ASC_NODE":"88.4538","OBJECT_NAME":"STARLINK-4282","SEMIMAJOR_AXIS":"6917.873","MEAN_MOTION_DOT":"-0.00000132","LAUNCH_DATE":"2022-07-07","INCLINATION":"53.2189","MEAN_MOTION_DDOT":"0.0000000000000","ARG_OF_PERICENTER":"48.2358","CLASSIFICATION_TYPE":"U","FILE":"3666658","MEAN_ANOMALY":"311.8796","COUNTRY_CODE":"US","EPOCH":"2022-11-21T19:53:02.904576","CENTER_NAME":"EARTH","TIME_SYSTEM":"UTC","REF_FRAME":"TEME","GP_ID":"218435415","OBJECT_ID":"2022-076AK","TLE_LINE1":"1 53019U 22076AK  22325.82850584 -.00000132  00000-0  98082-5 0  9998","APOAPSIS":"541.050","PERIOD":"95.437","RCS_SIZE":"LARGE","ECCENTRICITY":"0.00018970","PERIAPSIS":"538.426"},{"MEAN_MOTION":"15.08845916","EPHEMERIS_TYPE":"0","TLE_LINE2":"2 53020  53.2181  88.9954 0001531  54.3749 305.7386 15.08845916 21223","DECAY_DATE":null,"SITE":"AFETR","REV_AT_EPOCH":"2122","OBJECT_TYPE":"PAYLOAD","MEAN_ELEMENT_THEORY":"SGP4","RCS_SIZE":"LARGE","ECCENTRICITY":"0.00015310","PERIOD":"95.437","PERIAPSIS":"538.668","OBJECT_ID":"2022-076AL","TLE_LINE1":"1 53020U 22076AL  22325.71076006  .00000933  00000-0  76716-4 0  9994","APOAPSIS":"540.786","COUNTRY_CODE":"US","MEAN_ANOMALY":"305.7386","EPOCH":"2022-11-21T17:03:29.669184","FILE":"3666658","GP_ID":"218436235","REF_FRAME":"TEME","CENTER_NAME":"EARTH","TIME_SYSTEM":"UTC","SEMIMAJOR_AXIS":"6917.862","MEAN_MOTION_DOT":"0.00000933","LAUNCH_DATE":"2022-07-07","OBJECT_NAME":"STARLINK-4287","MEAN_MOTION_DDOT":"0.0000000000000","ARG_OF_PERICENTER":"54.3749","CLASSIFICATION_TYPE":"U","INCLINATION":"53.2181","ELEMENT_SET_NO":"999","NORAD_CAT_ID":"53020","BSTAR":"0.00007671600000","RA_OF_ASC_NODE":"88.9954"}];
